ONEWEB-0205             
1 48226U 21031S   25005.48926379 -.00000183  00000+0 -52727-3 0  9998
2 48226  87.8988  34.6256 0002008  96.8780 263.2578 13.14505253178947
ONEWEB-0206             
1 48227U 21031T   25005.76678418  .00000154  00000+0  38047-3 0  9993
2 48227  87.8990  34.5553 0002043  94.5324 265.6039 13.14505014178941
ONEWEB-0182             
1 48228U 21031U   25005.30531842  .00000155  00000+0  38315-3 0  9992
2 48228  87.8995  34.6830 0001790  89.4426 270.6909 13.14504668179082
ONEWEB-0186             
1 48229U 21031V   25005.31641722 -.00000016  00000+0 -77218-4 0  9997
2 48229  87.8992  34.6433 0001904  96.4408 263.6939 13.14501056179032
ONEWEB-0181             
1 48230U 21031W   25005.37033689 -.00002070  00000+0 -56185-2 0  9992
2 48230  87.8990  34.7033 0002086  91.0091 269.1277 13.14512752178894
ONEWEB-0188             
1 48231U 21031X   25005.48450797 -.00000543  00000+0 -14987-2 0  9995
2 48231  87.8987  34.6734 0001861  94.4581 265.6761 13.14502257178819
ONEWEB-0220             
1 48232U 21031Y   25005.14357101  .00000288  00000+0  74221-3 0  9996
2 48232  87.8986  34.6945 0002134  96.2668 263.8704 13.14501474179035
ONEWEB-0165             
1 48233U 21031Z   25005.47657846 -.00000145  00000+0 -42664-3 0  9992
2 48233  87.8992  34.6581 0001967  98.7390 261.3963 13.14500556179031
